[{"OBJECT_NAME":"SAUDISAT 5A","OBJECT_ID":"2018-102A","EPOCH":"2026-03-09T23:40:00.596928","MEAN_MOTION":15.26941021,"ECCENTRICITY":0.00113651,"INCLINATION":97.3185,"RA_OF_ASC_NODE":132.4981,"ARG_OF_PERICENTER":121.7113,"MEAN_ANOMALY":238.5235,"EPHEMERIS_TYPE":0,"CLASSIFICATION_TYPE":"U","NORAD_CAT_ID":43831,"ELEMENT_SET_NO":999,"REV_AT_EPOCH":40053,"BSTAR":0.00030305233,"MEAN_MOTION_DOT":7.96e-5,"MEAN_MOTION_DDOT":0},{"OBJECT_NAME":"STARLINK-31077","OBJECT_ID":"2023-203V","EPOCH":"2026-03-09T00:05:30.944832","MEAN_MOTION":15.27563784,"ECCENTRICITY":0.00011202,"INCLINATION":43.0102,"RA_OF_ASC_NODE":71.2186,"ARG_OF_PERICENTER":235.6806,"MEAN_ANOMALY":124.394,"EPHEMERIS_TYPE":0,"CLASSIFICATION_TYPE":"U","NORAD_CAT_ID":58637,"ELEMENT_SET_NO":999,"REV_AT_EPOCH":12468,"BSTAR":4.0295036e-5,"MEAN_MOTION_DOT":8.46e-6,"MEAN_MOTION_DDOT":0}]
